LEMUR-1                 
1 40044U 14033AL  22116.78471359  .00000987  00000+0  15121-3 0  9995
2 40044  97.6599 308.1111 0057734 327.7567  32.0118 14.74724569421862
LEMUR-2-XIAOQING        
1 41871U 16062C   22116.08594486  .00024454  00000+0  71770-3 0  9995
2 41871  51.6360 246.3197 0003083 117.0340 243.0958 15.35009779301906
LEMUR-2-SOKOLSKY        
1 41872U 16062D   22117.09525952  .00030240  00000+0  88558-3 0  9992
2 41872  51.6798 250.9091 0002799 255.3290 104.7383 15.34963394302029
LEMUR-2-ANUBHAVTHAKUR   
1 41873U 16062E   22116.80183745  .00010558  00000+0  40638-3 0  9998
2 41873  51.6823 287.6945 0008132  97.7589 262.4314 15.26883913301440
LEMUR-2-WINGO           
1 41874U 16062F   22116.66844534  .00022766  00000+0  68844-3 0  9996
2 41874  51.6479 253.0557 0009458  28.8613 331.2891 15.34073198301876
LEMUR-2-JOBANPUTRA      
1 41991U 17008AV  22117.17685697  .00016729  00000+0  57301-3 0  9995
2 41991  97.2654 179.6496 0007425  69.1444 291.0592 15.30254857288339
LEMUR-2-SPIRE-MINIONS   
1 41992U 17008AW  22117.14656003  .00022449  00000+0  69234-3 0  9996
2 41992  97.2729 183.4808 0006506  63.0246 297.1661 15.33575711288540
LEMUR-2-SATCHMO         
1 41993U 17008AX  22117.14104660  .00014897  00000+0  51122-3 0  9999
2 41993  97.2665 180.1723 0007621  68.9641 291.2415 15.30217306288364
LEMUR-2-SMITA-SHARAD    
1 41994U 17008AY  22117.13083842  .00025068  00000+0  77286-3 0  9998
2 41994  97.2718 183.2507 0006602  60.8698 299.3204 15.33563381288533
LEMUR-2-RDEATON         
1 41995U 17008AZ  22117.17349615  .00015116  00000+0  51897-3 0  9999
2 41995  97.2680 180.4090 0008808  79.3375 280.8857 15.30189918289059
LEMUR-2-TACHIKOMA       
1 41996U 17008BA  22117.12604897  .00024438  00000+0  76151-3 0  9998
2 41996  97.2765 183.4972 0007634  75.4695 284.7394 15.33222067288418
LEMUR-2-NOGUECORREIG    
1 41997U 17008BB  22116.45932843  .00020468  00000+0  62988-3 0  9991
2 41997  97.2745 183.2675 0007738  75.3896 284.8205 15.33654363288445
LEMUR-2-MIA-GRACE       
1 41998U 17008BC  22117.16503682  .00013515  00000+0  46674-3 0  9995
2 41998  97.2671 180.0326 0008693  80.6857 279.5366 15.30025954288274
LEMUR-2-ANGELA          
1 42752U 17019B   22117.05260502  .00028126  00000+0  70903-3 0  9991
2 42752  51.6351 132.3764 0005458 242.0583 117.9849 15.39639594273257
LEMUR-2-JENNYBARNA      
1 42753U 17019C   22117.18635761  .00045658  00000+0  90707-3 0  9992
2 42753  51.6326 110.3775 0002955 273.1914  86.8735 15.46510865273514
LEMUR-2-ROBMOORE        
1 42754U 17019D   22116.96552851  .00021011  00000+0  53285-3 0  9993
2 42754  51.6351 133.9998 0005321 246.2661 113.7766 15.39630707273201
LEMUR-2-SPIROVISION     
1 42755U 17019E   22117.18632650  .00045852  00000+0  92061-3 0  9999
2 42755  51.6361 110.7703 0003380 274.9766 190.0886 15.46200390273421
LEMUR-2-SHAINAJOHL      
1 42771U 17036G   22117.06538499  .00019223  00000+0  68910-3 0  9998
2 42771  97.2089 160.3043 0013827 136.0988 224.1354 15.28672767269134
LEMUR-2-XUENITERENCE    
1 42772U 17036H   22116.86266045  .00023702  00000+0  82783-3 0  9992
2 42772  97.2034 160.1692 0013219 134.4777 225.7547 15.29489714269136
LEMUR-2-LUCYBRYCE       
1 42773U 17036J   22116.86129395  .00013901  00000+0  52878-3 0  9991
2 42773  97.2143 160.5867 0013916 136.2054 224.0292 15.26783960269099
LEMUR-2-KUNGFOO         
1 42774U 17036K   22116.35763938  .00015626  00000+0  55704-3 0  9990
2 42774  97.2082 160.0313 0013253 136.4852 223.7436 15.28907717269046
LEMUR-2-LYNSEY-SYMO     
1 42779U 17036Q   22117.12190775  .00023508  00000+0  78149-3 0  9990
2 42779  97.2130 164.8729 0011618 133.4157 226.8053 15.31114091269381
LEMUR-2-LISASAURUS      
1 42780U 17036R   22116.86794335  .00021874  00000+0  79890-3 0  9992
2 42780  97.2130 161.7159 0011920 141.2079 219.0019 15.28058553269171
LEMUR-2-SAM-AMELIA      
1 42781U 17036S   22116.39828337  .00012356  00000+0  46100-3 0  9994
2 42781  97.2148 162.1669 0012230 140.1896 220.0243 15.27474838269136
LEMUR-2-MCPEAKE         
1 42782U 17036T   22116.88510688  .00017964  00000+0  61848-3 0  9992
2 42782  97.2091 163.2264 0011375 136.9103 223.3031 15.30035181269274
LEMUR-2-GREENBERG       
1 42837U 17042N   22116.47195113  .00002900  00000+0  28135-3 0  9993
2 42837  97.4356 336.9106 0013030 165.7658 194.3933 14.93324655260511
LEMUR-2-ANDIS           
1 42838U 17042P   22116.87091407  .00003412  00000+0  33006-3 0  9991
2 42838  97.4346 337.2423 0013183 164.2786 195.8847 14.93331024260576
LEMUR-2-MONSON          
1 42839U 17042Q   22117.15069128  .00003440  00000+0  33443-3 0  9995
2 42839  97.4356 337.2819 0012986 162.8047 197.3615 14.93124564260592
LEMUR-2-FURIAUS         
1 42840U 17042R   22116.84595114  .00001729  00000+0  17161-3 0  9998
2 42840  97.4385 337.3617 0013121 164.4017 195.7610 14.92892189260557
LEMUR-2-PETERG          
1 42841U 17042S   22116.85151647  .00001856  00000+0  18150-3 0  9999
2 42841  97.4412 338.3442 0012633 159.7887 200.3836 14.93427069260617
LEMUR-2-DEMBITZ         
1 42842U 17042T   22116.44066817  .00002815  00000+0  27161-3 0  9997
2 42842  97.4396 337.8168 0012813 161.8572 198.3109 14.93562565260556
LEMUR-2-ZACHARY         
1 42845U 17042W   22116.86393955  .00003896  00000+0  36899-3 0  9990
2 42845  97.4286 337.4346 0012915 163.0124 197.1532 14.94089482260652
LEMUR-2-ARTFISCHER      
1 42881U 17042BJ  22117.10270956  .00151445  00000+0  12367-2 0  9990
2 42881  96.8069 319.2113 0003926 338.1962  21.9134 15.70114083268999
LEMUR-2-MCCAFFERTY      
1 43123U 18004N   22116.63912641  .00021897  00000+0  68007-3 0  9990
2 43123  97.3787 196.0503 0008501 166.4295 193.7178 15.33345433238639
LEMUR-2-PETERWEBSTER    
1 43124U 18004P   22116.44295033  .00022247  00000+0  70438-3 0  9990
2 43124  97.3790 195.5822 0008474 166.4140 193.7332 15.32727206238587
LEMUR-2-BROWNCOW        
1 43125U 18004Q   22116.46568290  .00029036  00000+0  87475-3 0  9993
2 43125  97.3840 197.0222 0008511 162.6690 197.4845 15.34254873238661
LEMUR-2-DAVEWILSON      
1 43126U 18004R   22117.18952501  .00026277  00000+0  78085-3 0  9997
2 43126  97.3827 197.5204 0008222 160.2047 199.9517 15.34711665238762
LEMUR-2-MARSHALL        
1 43165U 18010C   22117.03136994  .00022466  00000+0  83501-3 0  9996
2 43165  82.9116 115.6239 0028455 151.0958 209.1865 15.27017888236636
LEMUR-2-TALLHAMN-ATC    
1 43167U 18010E   22116.44406015  .00014963  00000+0  61464-3 0  9993
2 43167  82.9149 121.9120 0022207 174.3150 185.8345 15.23846954236198
LEMUR-2-JIN-LUEN        
1 43182U 18014C   22117.18994982  .00005709  00000+0  48006-3 0  9996
2 43182  97.6493  21.9708 0014287 111.3187 248.9562 14.98583025231219
LEMUR-2-URAMCHANSOL     
1 43183U 18014D   22116.53035451  .00004707  00000+0  39679-3 0  9995
2 43183  97.6505  21.5241 0014659 113.8510 246.4251 14.98567833231129
LEMUR-2-KADI            
1 43184U 18014E   22116.62195816  .00004536  00000+0  38460-3 0  9995
2 43184  97.6522  21.5481 0015588 111.9064 248.3818 14.98354888231135
LEMUR-2-THENICKMOLO     
1 43185U 18014F   22116.52977555  .00004289  00000+0  36337-3 0  9999
2 43185  97.6516  21.6356 0014345 114.8539 245.4177 14.98427739231121
LEMUR-2-VU              
1 43558U 18046E   22117.12938152  .00038403  00000+0  87145-3 0  9993
2 43558  51.6391  58.4728 0004054 188.3017 171.7902 15.42666664211611
LEMUR-2-ALEXANDER       
1 43559U 18046F   22117.04967079  .00042936  00000+0  95325-3 0  9990
2 43559  51.6387  57.2189 0004091 183.7355 176.3601 15.43266860211409
LEMUR-2-YUASA           
1 43560U 18046G   22117.10262210  .00040191  00000+0  90832-3 0  9993
2 43560  51.6399  59.0443 0003380 197.9263 162.1604 15.42768788211605
LEMUR-2-TOMHENDERSON    
1 43561U 18046H   22116.25946362  .00034695  00000+0  81823-3 0  9998
2 43561  51.6397  65.3763 0004060 207.5371 152.5400 15.41558897211001
LEMUR-2-ZUPANSKI        
1 43695U 18088F   22116.89992321  .00014160  00000+0  52983-3 0  9998
2 43695  85.0311 347.9963 0013212 335.8611  24.2013 15.27108045192034
LEMUR-2-CHANUSIAK       
1 43697U 18088H   22116.36965330  .00012873  00000+0  46838-3 0  9993
2 43697  85.0373 348.3710 0011182 315.6857  44.3492 15.28048158192067
LEMUR-2-ORZULAK         
1 43731U 18096N   22116.47673172  .00035307  00000+0  89448-3 0  9994
2 43731  97.3646 200.9639 0015790 230.1279 129.8579 15.39515179190243
LEMUR-2-KOBYSZCZE       
1 43732U 18096P   22116.49278677  .00032563  00000+0  82003-3 0  9999
2 43732  97.3665 201.3617 0015933 228.5185 131.4694 15.39713186190269
LEMUR-2-DULY            
1 43745U 18096AC  22117.16619839  .00037888  00000+0  97071-3 0  9993
2 43745  97.3653 201.8830 0015969 226.1676 133.8250 15.39153958190371
LEMUR-2-VLADIMIR        
1 43746U 18096AD  22117.17095728  .00042033  00000+0  10240-2 0  9990
2 43746  97.3648 202.3061 0015862 226.4683 133.5246 15.40668034190427
LEMUR-2-CHRISTINAHOLT   
1 43882U 18111G   22117.18802275  .00005304  00000+0  44343-3 0  9995
2 43882  97.6757  25.5944 0011997 123.5644 236.6726 14.98863560180088
LEMUR-2-TINYKEV         
1 43883U 18111H   22116.45882256  .00004545  00000+0  38048-3 0  9993
2 43883  97.6757  25.0433 0011613 127.8245 232.4030 14.98888658181983
LEMUR-2-REMY-COLTON     
1 43884U 18111J   22117.17024127  .00006729  00000+0  55549-3 0  9990
2 43884  97.6820  26.1510 0013066 119.5114 240.7413 14.99246917180118
LEMUR-2-GUSTAVO         
1 43885U 18111K   22117.18056560  .00004700  00000+0  39326-3 0  9990
2 43885  97.6794  25.9126 0012246 119.4449 240.7998 14.98885983180094
LEMUR-2-ZO              
1 43886U 18111L   22116.50855751  .00004663  00000+0  38933-3 0  9996
2 43886  97.6811  25.5039 0012672 119.6582 240.5905 14.98973209182005
LEMUR-2-NATALIEMURRAY   
1 43887U 18111M   22116.54495445  .00004763  00000+0  39643-3 0  9991
2 43887  97.6778  25.8039 0012624 125.8816 234.3581 14.99085126182023
